[{"OBJECT_NAME":"STARLINK-34501","OBJECT_ID":"2025-129T","EPOCH":"2026-03-09T10:03:51.335424","MEAN_MOTION":14.98326747,"ECCENTRICITY":0.00033195,"INCLINATION":70.0006,"RA_OF_ASC_NODE":75.2658,"ARG_OF_PERICENTER":271.178,"MEAN_ANOMALY":88.8999,"EPHEMERIS_TYPE":0,"CLASSIFICATION_TYPE":"U","NORAD_CAT_ID":64429,"ELEMENT_SET_NO":999,"REV_AT_EPOCH":4124,"BSTAR":-9.400282e-6,"MEAN_MOTION_DOT":-2.05e-6,"MEAN_MOTION_DDOT":0},{"OBJECT_NAME":"CZ-6A DEB","OBJECT_ID":"2024-140AEQ","EPOCH":"2026-03-08T12:33:24.076512","MEAN_MOTION":14.8870666,"ECCENTRICITY":0.00636681,"INCLINATION":88.9441,"RA_OF_ASC_NODE":276.789,"ARG_OF_PERICENTER":190.9278,"MEAN_ANOMALY":169.0572,"EPHEMERIS_TYPE":0,"CLASSIFICATION_TYPE":"U","NORAD_CAT_ID":64650,"ELEMENT_SET_NO":999,"REV_AT_EPOCH":7602,"BSTAR":0.0049237892,"MEAN_MOTION_DOT":0.00048011,"MEAN_MOTION_DDOT":0}]
